[{"OBJECT_NAME":"SINAH 1","OBJECT_ID":"2005-043D","EPOCH":"2026-03-09T23:01:58.936224","MEAN_MOTION":14.64073832,"ECCENTRICITY":0.00136586,"INCLINATION":98.2684,"RA_OF_ASC_NODE":202.7914,"ARG_OF_PERICENTER":223.4816,"MEAN_ANOMALY":136.531,"EPHEMERIS_TYPE":0,"CLASSIFICATION_TYPE":"U","NORAD_CAT_ID":28893,"ELEMENT_SET_NO":999,"REV_AT_EPOCH":8600,"BSTAR":0.00013062148,"MEAN_MOTION_DOT":6.37e-6,"MEAN_MOTION_DDOT":0},{"OBJECT_NAME":"CZ-4 DEB","OBJECT_ID":"1990-081BQ","EPOCH":"2026-03-09T13:36:03.939264","MEAN_MOTION":14.59816899,"ECCENTRICITY":0.00166496,"INCLINATION":98.4159,"RA_OF_ASC_NODE":79.8959,"ARG_OF_PERICENTER":42.9659,"MEAN_ANOMALY":74.2563,"EPHEMERIS_TYPE":0,"CLASSIFICATION_TYPE":"U","NORAD_CAT_ID":20904,"ELEMENT_SET_NO":999,"REV_AT_EPOCH":84387,"BSTAR":0.0015727989,"MEAN_MOTION_DOT":7.489e-5,"MEAN_MOTION_DDOT":0}]
